[{"OBJECT_NAME":"KUIPER-00078","OBJECT_ID":"2025-151K","EPOCH":"2026-03-09T22:25:22.408032","MEAN_MOTION":14.79910308,"ECCENTRICITY":9.148e-5,"INCLINATION":51.901,"RA_OF_ASC_NODE":294.5072,"ARG_OF_PERICENTER":57.8645,"MEAN_ANOMALY":302.2406,"EPHEMERIS_TYPE":0,"CLASSIFICATION_TYPE":"U","NORAD_CAT_ID":64825,"ELEMENT_SET_NO":999,"REV_AT_EPOCH":3541,"BSTAR":-0.00014297297,"MEAN_MOTION_DOT":-1.31e-5,"MEAN_MOTION_DDOT":0},{"OBJECT_NAME":"LQSAT","OBJECT_ID":"2015-057A","EPOCH":"2026-03-09T22:30:52.911360","MEAN_MOTION":14.76636989,"ECCENTRICITY":0.00157175,"INCLINATION":97.6668,"RA_OF_ASC_NODE":67.2535,"ARG_OF_PERICENTER":232.0194,"MEAN_ANOMALY":127.9598,"EPHEMERIS_TYPE":0,"CLASSIFICATION_TYPE":"U","NORAD_CAT_ID":40958,"ELEMENT_SET_NO":999,"REV_AT_EPOCH":56066,"BSTAR":0.00010941042,"MEAN_MOTION_DOT":7.18e-6,"MEAN_MOTION_DDOT":0}]
